$$SOE
2461295.500000000, A.D. 2026-Sep-12 00:00:00.0000, -3.586807307476895E+08, 9.107633981083046E+07, -6.001051551754142E+07,
2461302.500000000, A.D. 2026-Sep-19 00:00:00.0000, -3.602049535176803E+08, 7.943830312155989E+07, -5.839338263570306E+07,
2461309.500000000, A.D. 2026-Sep-26 00:00:00.0000, -3.613934929610860E+08, 6.772634877609192E+07, -5.672181458938082E+07,
2461316.500000000, A.D. 2026-Oct-03 00:00:00.0000, -3.622413727518551E+08, 5.595066062450117E+07, -5.499676303945295E+07,
2461323.500000000, A.D. 2026-Oct-10 00:00:00.0000, -3.627439266903815E+08, 4.412173566072948E+07, -5.321926810141569E+07,
2461330.500000000, A.D. 2026-Oct-17 00:00:00.0000, -3.628968208799985E+08, 3.225037572816289E+07, -5.139045986542821E+07,
2461337.500000000, A.D. 2026-Oct-24 00:00:00.0000, -3.626960760471465E+08, 2.034767753266860E+07, -4.951155969240118E+07,
2461344.500000000, A.D. 2026-Oct-31 00:00:00.0000, -3.621380897872496E+08, 8.425020835930262E+06, -4.758388127579352E+07,
2461351.500000000, A.D. 2026-Nov-07 00:00:00.0000, -3.612196582675730E+08, -3.505945148449089E+06, -4.560883146928471E+07,
2461358.500000000, A.D. 2026-Nov-14 00:00:00.0000, -3.599379970459699E+08, -1.543331631014489E+07, -4.358791080148399E+07,
2461365.500000000, A.D. 2026-Nov-21 00:00:00.0000, -3.582907626676512E+08, -2.734494849748608E+07, -4.152271343174828E+07,
2461372.500000000, A.D. 2026-Nov-28 00:00:00.0000, -3.562760758829814E+08, -3.922847569954073E+07, -3.941492667924680E+07,
2461379.500000000, A.D. 2026-Dec-05 00:00:00.0000, -3.538925427065691E+08, -5.107133221277943E+07, -3.726633049026585E+07,
2461386.500000000, A.D. 2026-Dec-12 00:00:00.0000, -3.511392729815583E+08, -6.286077566479121E+07, -3.507879658389395E+07,
2461393.500000000, A.D. 2026-Dec-19 00:00:00.0000, -3.480158981573635E+08, -7.458391085829765E+07, -3.285428708333664E+07,
2461400.500000000, A.D. 2026-Dec-26 00:00:00.0000, -3.445225882457004E+08, -8.622771525819306E+07, -3.059485267580812E+07,
2461407.500000000, A.D. 2027-Jan-02 00:00:00.0000, -3.406600675047837E+08, -9.777906624709007E+07, -2.830263033063991E+07,
2461414.500000000, A.D. 2027-Jan-09 00:00:00.0000, -3.364296285619190E+08, -1.092247700427610E+08, -2.597984057612567E+07,
2461421.500000000, A.D. 2027-Jan-16 00:00:00.0000, -3.318331447697071E+08, -1.205515921626552E+08, -2.362878433228313E+07,
2461428.500000000, A.D. 2027-Jan-23 00:00:00.0000, -3.268730805875356E+08, -1.317462893496566E+08, -2.125183930557253E+07,
2461435.500000000, A.D. 2027-Jan-30 00:00:00.0000, -3.215524996481372E+08, -1.427956428610497E+08, -1.885145596934997E+07,
2461442.500000000, A.D. 2027-Feb-06 00:00:00.0000, -3.158750699428545E+08, -1.536864926136707E+08, -1.643015314774209E+07,
2461449.500000000, A.D. 2027-Feb-13 00:00:00.0000, -3.098450664545157E+08, -1.644057707781188E+08, -1.399051307135868E+07,
2461456.500000000, A.D. 2027-Feb-20 00:00:00.0000, -3.034673734814390E+08, -1.749405354099021E+08, -1.153517576768093E+07,
2461463.500000000, A.D. 2027-Feb-27 00:00:00.0000, -2.967474851549699E+08, -1.852780071194880E+08, -9.066833197993971E+06,
2461470.500000000, A.D. 2027-Mar-06 00:00:00.0000, -2.896915010575428E+08, -1.954056066391106E+08, -6.588223287894130E+06,
2461477.500000000, A.D. 2027-Mar-13 00:00:00.0000, -2.823061184939030E+08, -2.053109910059582E+08, -4.102123569118246E+06,
2461484.500000000, A.D. 2027-Mar-20 00:00:00.0000, -2.745986225229542E+08, -2.149820889548025E+08, -1.611344433048531E+06,
2461491.500000000, A.D. 2027-Mar-27 00:00:00.0000, -2.665768735513632E+08, -2.244071358215514E+08, 8.812779015730023E+05,
2461498.500000000, A.D. 2027-Apr-03 00:00:00.0000, -2.582492923154824E+08, -2.335747077566727E+08, 3.372888642019197E+06,
2461505.500000000, A.D. 2027-Apr-10 00:00:00.0000, -2.496248422462725E+08, -2.424737549778102E+08, 5.860621847632051E+06,
2461512.500000000, A.D. 2027-Apr-17 00:00:00.0000, -2.407130092765103E+08, -2.510936338327596E+08, 8.341607978397265E+06,
2461519.500000000, A.D. 2027-Apr-24 00:00:00.0000, -2.315237791178916E+08, -2.594241375004731E+08, 1.081298150458924E+07,
2461526.500000000, A.D. 2027-May-01 00:00:00.0000, -2.220676118407275E+08, -2.674555250795693E+08, 1.327188850155172E+07,
2461533.500000000, A.D. 2027-May-08 00:00:00.0000, -2.123554136051744E+08, -2.751785481071969E+08, 1.571549421085104E+07,
2461540.500000000, A.D. 2027-May-15 00:00:00.0000, -2.023985072178113E+08, -2.825844733621569E+08, 1.814099073067990E+07,
2461547.500000000, A.D. 2027-May-22 00:00:00.0000, -1.922086032718175E+08, -2.896651043722281E+08, 2.054560471460585E+07,
2461554.500000000, A.D. 2027-May-29 00:00:00.0000, -1.817977687270270E+08, -2.964128029495223E+08, 2.292660459944725E+07,
2461561.500000000, A.D. 2027-Jun-05 00:00:00.0000, -1.711783922739260E+08, -3.028205075048503E+08, 2.528130748827161E+07,
2461568.500000000, A.D. 2027-Jun-12 00:00:00.0000, -1.603631487300302E+08, -3.088817476174284E+08, 2.760708586236259E+07,
2461575.500000000, A.D. 2027-Jun-19 00:00:00.0000, -1.493649630491231E+08, -3.145906557291529E+08, 2.990137403407648E+07,
2461582.500000000, A.D. 2027-Jun-26 00:00:00.0000, -1.381969739181302E+08, -3.199419761855896E+08, 3.216167425529331E+07,
2461589.500000000, A.D. 2027-Jul-03 00:00:00.0000, -1.268724970645165E+08, -3.249310716038530E+08, 3.438556243584299E+07,
2461596.500000000, A.D. 2027-Jul-10 00:00:00.0000, -1.154049884906615E+08, -3.295539265747334E+08, 3.657069343995740E+07,
2461603.500000000, A.D. 2027-Jul-17 00:00:00.0000, -1.038080078472943E+08, -3.338071487791852E+08, 3.871480593006003E+07,
2461610.500000000, A.D. 2027-Jul-24 00:00:00.0000, -9.209518202888067E+07, -3.376879676463051E+08, 4.081572671896422E+07,
2461617.500000000, A.D. 2027-Jul-31 00:00:00.0000, -8.028016880648997E+07, -3.411942304038474E+08, 4.287137459716307E+07,
2461624.500000000, A.D. 2027-Aug-07 00:00:00.0000, -6.837662091153489E+07, -3.443243944767455E+08, 4.487976373759328E+07,
2461631.500000000, A.D. 2027-Aug-14 00:00:00.0000, -5.639815306765839E+07, -3.470775166117166E+08, 4.683900686243345E+07,
2461638.500000000, A.D. 2027-Aug-21 00:00:00.0000, -4.435831152977483E+07, -3.494532422336132E+08, 4.874731783890331E+07,
2461645.500000000, A.D. 2027-Aug-28 00:00:00.0000, -3.227054285785087E+07, -3.514517939888517E+08, 5.060301349161053E+07,
2461652.500000000, A.D. 2027-Sep-04 00:00:00.0000, -2.014816324697093E+07, -3.530739571438186E+08, 5.240451495300180E+07,
2461659.500000000, A.D. 2027-Sep-11 00:00:00.0000, -8.004329929161916E+06, -3.543210626762953E+08, 5.415034863819887E+07,
2461666.500000000, A.D. 2027-Sep-18 00:00:00.0000, 4.147985387003733E+06, -3.551949688915515E+08, 5.583914679444951E+07,
2461673.500000000, A.D. 2027-Sep-25 00:00:00.0000, 1.629602118941966E+07, -3.556980418247436E+08, 5.746964761625089E+07,
2461680.500000000, A.D. 2027-Oct-02 00:00:00.0000, 2.842724896558357E+07, -3.558331345863836E+08, 5.904069494226000E+07,
2461687.500000000, A.D. 2027-Oct-09 00:00:00.0000, 4.052939412147274E+07, -3.556035658390846E+08, 6.055123755482326E+07,
2461694.500000000, A.D. 2027-Oct-16 00:00:00.0000, 5.259045506114309E+07, -3.550130976425930E+08, 6.200032809795614E+07,
2461701.500000000, A.D. 2027-Oct-23 00:00:00.0000, 6.459872068468442E+07, -3.540659128506992E+08, 6.338712161779900E+07,
2461708.500000000, A.D. 2027-Oct-30 00:00:00.0000, 7.654278669116192E+07, -3.527665916200210E+08, 6.471087377024193E+07,
2461715.500000000, A.D. 2027-Nov-06 00:00:00.0000, 8.841156954798649E+07, -3.511200860621632E+08, 6.597093892320511E+07,
2461722.500000000, A.D. 2027-Nov-13 00:00:00.0000, 1.001943161791262E+08, -3.491316952614778E+08, 6.716676819263723E+07,
2461729.500000000, A.D. 2027-Nov-20 00:00:00.0000, 1.118806123267488E+08, -3.468070429779803E+08, 6.829790699266639E+07,
2461736.500000000, A.D. 2027-Nov-27 00:00:00.0000, 1.234603912707127E+08, -3.441520551969784E+08, 6.936399221989568E+07,
2461743.500000000, A.D. 2027-Dec-04 00:00:00.0000, 1.349239409591795E+08, -3.411729367303265E+08, 7.036474935976247E+07,
2461750.500000000, A.D. 2027-Dec-11 00:00:00.0000, 1.462619090826855E+08, -3.378761479434643E+08, 7.129998951528773E+07,
2461757.500000000, A.D. 2027-Dec-18 00:00:00.0000, 1.574653064524365E+08, -3.342683820472035E+08, 7.216960633360961E+07,
2461764.500000000, A.D. 2027-Dec-25 00:00:00.0000, 1.685255089220330E+08, -3.303565430436897E+08, 7.297357284257725E+07,
2461771.500000000, A.D. 2028-Jan-01 00:00:00.0000, 1.794342579828366E+08, -3.261477243854760E+08, 7.371193821831700E+07,
$$EOE